{
"type": "FeatureCollection",
"name": "kasumigaura",
"crs": { "type": "name", "properties": { "name": "urn:ogc:def:crs:EPSG::3857" } },
"features": [
{ "type": "Feature", "properties": { }, "geometry": { "type": "Polygon", "coordinates": [ [ [ 15617271.10716493614018, 4322925.005439787171781 ], [ 15619360.36197460629046, 4322872.774069544859231 ], [ 15620613.914860406890512, 4322559.385848094709218 ], [ 15621815.236375967040658, 4321201.370221809484065 ], [ 15622337.550078384578228, 4320365.668297941796482 ], [ 15622650.938299834728241, 4319791.123225282877684 ], [ 15623538.871593944728374, 4319843.354595525190234 ], [ 15624322.342147570103407, 4320261.205557459034026 ], [ 15624061.185296362265944, 4321096.907481326721609 ], [ 15625419.200922645628452, 4321096.907481326721609 ], [ 15626620.522438205778599, 4320261.205557459034026 ], [ 15627665.149843040853739, 4318276.413488272577524 ], [ 15628553.083137150853872, 4318171.950747789815068 ], [ 15628866.471358601003885, 4317022.860602471977472 ], [ 15629179.859580051153898, 4315090.299903527833521 ], [ 15629911.09876343421638, 4313784.515647484920919 ], [ 15630172.255614643916488, 4313053.276464099995792 ], [ 15630799.032057544216514, 4312844.350983133539557 ], [ 15630955.72616826929152, 4311381.872616364620626 ], [ 15631686.965351654216647, 4309762.700138871558011 ], [ 15632888.286867212504148, 4308195.759031619876623 ], [ 15634768.616195915266871, 4305584.190519533120096 ], [ 15635708.78086026571691, 4303599.398450347594917 ], [ 15636857.871005585417151, 4301196.755419228225946 ], [ 15637798.03566993586719, 4298794.112388108856976 ], [ 15637902.498410418629646, 4298324.030055933631957 ], [ 15639521.670887913554907, 4298062.873204724863172 ], [ 15640670.761033231392503, 4297018.245799889788032 ], [ 15640879.686514196917415, 4295555.767433121800423 ], [ 15640252.910071296617389, 4294302.214547320269048 ], [ 15639521.670887913554907, 4294041.057696111500263 ], [ 15638581.506223561242223, 4294093.289066352881491 ], [ 15636805.639635343104601, 4294720.06550925411284 ], [ 15635029.773047124966979, 4295712.461543846875429 ], [ 15634246.302493497729301, 4296652.626208198256791 ], [ 15634611.922085190191865, 4297331.634021340869367 ], [ 15631582.502611169591546, 4298219.567315449938178 ], [ 15630642.337946819141507, 4298950.806498833931983 ], [ 15629702.173282468691468, 4299159.73197980131954 ], [ 15628605.314507391303778, 4297697.253613032400608 ], [ 15626777.216548930853605, 4297801.716353516094387 ], [ 15624740.193109503015876, 4298167.335945207625628 ], [ 15624165.6480368450284, 4297697.253613032400608 ], [ 15624583.498998777940869, 4296234.775246264412999 ], [ 15623538.871593944728374, 4297070.477170132100582 ], [ 15623016.557891527190804, 4298271.798685691319406 ], [ 15623800.028445152565837, 4300361.053495360538363 ], [ 15625784.820514338091016, 4300778.904457294382155 ], [ 15626411.596957238391042, 4301196.755419228225946 ], [ 15624949.118590470403433, 4302554.771045513451099 ], [ 15623800.028445152565837, 4303599.398450347594917 ], [ 15623225.483372494578362, 4304069.480782522819936 ], [ 15621240.691303309053183, 4303965.01804204005748 ], [ 15617897.883607838302851, 4304069.480782522819936 ], [ 15614502.844542125239968, 4305009.645446874201298 ], [ 15610951.111365687102079, 4305793.116000500507653 ], [ 15608861.856556018814445, 4307255.594367268495262 ], [ 15608026.154632151126862, 4310180.551100805401802 ], [ 15607660.535040458664298, 4312165.343169990926981 ], [ 15608705.162445293739438, 4312583.194131924770772 ], [ 15610794.417254962027073, 4312113.111799749545753 ], [ 15611839.044659797102213, 4311068.484394914470613 ], [ 15613249.291656324639916, 4310285.013841289095581 ], [ 15615756.397427927702665, 4310232.78247104678303 ], [ 15617584.495386388152838, 4309658.237398387864232 ], [ 15619203.667863881215453, 4310493.939322255551815 ], [ 15621188.459933066740632, 4309762.700138871558011 ], [ 15623643.33433442749083, 4309606.006028146483004 ], [ 15625523.663663130253553, 4309762.700138871558011 ], [ 15626777.216548930853605, 4311225.178505639545619 ], [ 15627717.381213283166289, 4312060.880429507233202 ], [ 15627508.455732315778732, 4312739.888242649845779 ], [ 15626620.522438205778599, 4313523.358796276152134 ], [ 15626359.365586997941136, 4314672.44894159398973 ], [ 15626724.9851786904037, 4314933.605792802758515 ], [ 15623591.10296418517828, 4316918.397861988283694 ], [ 15621971.930486692115664, 4317440.711564405821264 ], [ 15621449.616784274578094, 4318903.189931173808873 ], [ 15621919.699116449803114, 4319477.735003832727671 ], [ 15620927.303081857040524, 4320470.13103842549026 ], [ 15619778.212936539202929, 4320000.048706250265241 ], [ 15618890.27964243106544, 4321096.907481326721609 ], [ 15618211.271829288452864, 4321984.84077543579042 ], [ 15618420.197310253977776, 4322350.460367127321661 ], [ 15617271.10716493614018, 4322925.005439787171781 ] ] ] } }
]
}
